{"type": "FeatureCollection", "features": [{"type": "Feature", "properties": {"norad_id": 2807, "name": "OPS 7218 (TRANSIT 16)", "group": "nnss", "lat": 87.78526215205737, "lon": 2.4554705235820826, "alt_km": 1046.9704028509477, "timestamp": "2025-12-14T03:55:53.056004+00:00", "meta": {"OBJECT_NAME": "OPS 7218 (TRANSIT 16)", "OBJECT_ID": "1967-048A", "EPOCH": "2025-12-13T06:13:24.964608", "MEAN_MOTION": 13.50722269, "ECCENTRICITY": 0.00219842, "INCLINATION": 89.6732, "RA_OF_ASC_NODE": 353.999, "ARG_OF_PERICENTER": 112.6791, "MEAN_ANOMALY": 259.6646, "EPHEMERIS_TYPE": 0, "CLASSIFICATION_TYPE": "U", "NORAD_CAT_ID": 2807, "ELEMENT_SET_NO": 999, "REV_AT_EPOCH": 88283, "BSTAR": 0.000193005, "MEAN_MOTION_DOT": 1.35e-06, "MEAN_MOTION_DDOT": 0}, "tle": {"line1": "1 02807U 67048A   25347.25931672  .00000135  00000+0  19300-3 0  9992", "line2": "2 02807  89.6732 353.9990 0021984 112.6791 259.6646 13.50722269882837"}}, "geometry": {"type": "Point", "coordinates": [2.4554705235820826, 87.78526215205737]}}, {"type": "Feature", "properties": {"norad_id": 2965, "name": "OPS 4947 (TRANSIT 17)", "group": "nnss", "lat": 13.98321159394378, "lon": -155.85977863679167, "alt_km": 1045.5837032157933, "timestamp": "2025-12-14T03:55:53.056026+00:00", "meta": {"OBJECT_NAME": "OPS 4947 (TRANSIT 17)", "OBJECT_ID": "1967-092A", "EPOCH": "2025-12-13T04:22:20.244000", "MEAN_MOTION": 13.53453585, "ECCENTRICITY": 0.00462093, "INCLINATION": 89.2496, "RA_OF_ASC_NODE": 24.4019, "ARG_OF_PERICENTER": 233.1764, "MEAN_ANOMALY": 193.1331, "EPHEMERIS_TYPE": 0, "CLASSIFICATION_TYPE": "U", "NORAD_CAT_ID": 2965, "ELEMENT_SET_NO": 999, "REV_AT_EPOCH": 87103, "BSTAR": 0.00024056866, "MEAN_MOTION_DOT": 1.74e-06, "MEAN_MOTION_DDOT": 0}, "tle": {"line1": "1 02965U 67092A   25347.18217875  .00000174  00000+0  24057-3 0  9998", "line2": "2 02965  89.2496  24.4019 0046209 233.1764 193.1331 13.53453585871031"}}, "geometry": {"type": "Point", "coordinates": [-155.85977863679167, 13.98321159394378]}}, {"type": "Feature", "properties": {"norad_id": 3133, "name": "OPS 7034 (TRANSIT 18)", "group": "nnss", "lat": -53.642205865700625, "lon": -86.31912332537523, "alt_km": 1116.433436448151, "timestamp": "2025-12-14T03:55:53.056041+00:00", "meta": {"OBJECT_NAME": "OPS 7034 (TRANSIT 18)", "OBJECT_ID": "1968-012A", "EPOCH": "2025-12-13T07:26:06.994752", "MEAN_MOTION": 13.51565827, "ECCENTRICITY": 0.00739058, "INCLINATION": 90.028, "RA_OF_ASC_NODE": 273.6404, "ARG_OF_PERICENTER": 167.4806, "MEAN_ANOMALY": 305.6155, "EPHEMERIS_TYPE": 0, "CLASSIFICATION_TYPE": "U", "NORAD_CAT_ID": 3133, "ELEMENT_SET_NO": 999, "REV_AT_EPOCH": 56926, "BSTAR": 0.0002240119, "MEAN_MOTION_DOT": 1.58e-06, "MEAN_MOTION_DDOT": 0}, "tle": {"line1": "1 03133U 68012A   25347.30980318  .00000158  00000+0  22401-3 0  9995", "line2": "2 03133  90.0280 273.6404 0073905 167.4806 305.6155 13.51565827569269"}}, "geometry": {"type": "Point", "coordinates": [-86.31912332537523, -53.642205865700625]}}, {"type": "Feature", "properties": {"norad_id": 4507, "name": "NNSS 19 (TRANSIT 19)", "group": "nnss", "lat": -84.38442471609935, "lon": -125.40920408196642, "alt_km": 951.3732211287943, "timestamp": "2025-12-14T03:55:53.056053+00:00", "meta": {"OBJECT_NAME": "NNSS 19 (TRANSIT 19)", "OBJECT_ID": "1970-067A", "EPOCH": "2025-12-13T05:14:05.776224", "MEAN_MOTION": 13.51315276, "ECCENTRICITY": 0.01705133, "INCLINATION": 90.0055, "RA_OF_ASC_NODE": 234.5343, "ARG_OF_PERICENTER": 291.984, "MEAN_ANOMALY": 66.3269, "EPHEMERIS_TYPE": 0, "CLASSIFICATION_TYPE": "U", "NORAD_CAT_ID": 4507, "ELEMENT_SET_NO": 999, "REV_AT_EPOCH": 72228, "BSTAR": 0.00021559738, "MEAN_MOTION_DOT": 1.61e-06, "MEAN_MOTION_DDOT": 0}, "tle": {"line1": "1 04507U 70067A   25347.21812241  .00000161  00000+0  21560-3 0  9992", "line2": "2 04507  90.0055 234.5343 0170513 291.9840  66.3269 13.51315276722288"}}, "geometry": {"type": "Point", "coordinates": [-125.40920408196642, -84.38442471609935]}}, {"type": "Feature", "properties": {"norad_id": 6909, "name": "NNSS 20 (TRANSIT 20)", "group": "nnss", "lat": 87.69655202760221, "lon": 71.45330102992716, "alt_km": 877.0845737175223, "timestamp": "2025-12-14T03:55:53.056065+00:00", "meta": {"OBJECT_NAME": "NNSS 20 (TRANSIT 20)", "OBJECT_ID": "1973-081A", "EPOCH": "2025-12-13T06:28:53.556384", "MEAN_MOTION": 13.71434566, "ECCENTRICITY": 0.01566177, "INCLINATION": 89.8562, "RA_OF_ASC_NODE": 255.0462, "ARG_OF_PERICENTER": 76.7473, "MEAN_ANOMALY": 285.1105, "EPHEMERIS_TYPE": 0, "CLASSIFICATION_TYPE": "U", "NORAD_CAT_ID": 6909, "ELEMENT_SET_NO": 999, "REV_AT_EPOCH": 80368, "BSTAR": 0.00032998646, "MEAN_MOTION_DOT": 3.35e-06, "MEAN_MOTION_DDOT": 0}, "tle": {"line1": "1 06909U 73081A   25347.27006431  .00000335  00000+0  32999-3 0  9992", "line2": "2 06909  89.8562 255.0462 0156617  76.7473 285.1105 13.71434566803685"}}, "geometry": {"type": "Point", "coordinates": [71.45330102992716, 87.69655202760221]}}, {"type": "Feature", "properties": {"norad_id": 10457, "name": "TRANSAT", "group": "nnss", "lat": -89.14519323076898, "lon": -77.12970570835162, "alt_km": 1081.5597053399752, "timestamp": "2025-12-14T03:55:53.056076+00:00", "meta": {"OBJECT_NAME": "TRANSAT", "OBJECT_ID": "1977-106A", "EPOCH": "2025-12-13T07:18:45.480384", "MEAN_MOTION": 13.48943759, "ECCENTRICITY": 0.00254522, "INCLINATION": 89.6481, "RA_OF_ASC_NODE": 78.577, "ARG_OF_PERICENTER": 187.8252, "MEAN_ANOMALY": 231.5479, "EPHEMERIS_TYPE": 0, "CLASSIFICATION_TYPE": "U", "NORAD_CAT_ID": 10457, "ELEMENT_SET_NO": 999, "REV_AT_EPOCH": 36751, "BSTAR": 0.0001616254, "MEAN_MOTION_DOT": 1.12e-06, "MEAN_MOTION_DDOT": 0}, "tle": {"line1": "1 10457U 77106A   25347.30469306  .00000112  00000+0  16163-3 0  9993", "line2": "2 10457  89.6481  78.5770 0025452 187.8252 231.5479 13.48943759367516"}}, "geometry": {"type": "Point", "coordinates": [-77.12970570835162, -89.14519323076898]}}, {"type": "Feature", "properties": {"norad_id": 12458, "name": "NOVA 1", "group": "nnss", "lat": 38.82126179154216, "lon": 91.4836830052524, "alt_km": 1163.5313718161078, "timestamp": "2025-12-14T03:55:53.056087+00:00", "meta": {"OBJECT_NAME": "NOVA 1", "OBJECT_ID": "1981-044A", "EPOCH": "2025-12-13T08:04:22.436256", "MEAN_MOTION": 13.23278602, "ECCENTRICITY": 0.00158902, "INCLINATION": 89.8524, "RA_OF_ASC_NODE": 91.3766, "ARG_OF_PERICENTER": 102.5175, "MEAN_ANOMALY": 317.0788, "EPHEMERIS_TYPE": 0, "CLASSIFICATION_TYPE": "U", "NORAD_CAT_ID": 12458, "ELEMENT_SET_NO": 999, "REV_AT_EPOCH": 15194, "BSTAR": 0.00019925758, "MEAN_MOTION_DOT": 9.3e-07, "MEAN_MOTION_DDOT": 0}, "tle": {"line1": "1 12458U 81044A   25347.33637079  .00000093  00000+0  19926-3 0  9997", "line2": "2 12458  89.8524  91.3766 0015890 102.5175 317.0788 13.23278602151942"}}, "geometry": {"type": "Point", "coordinates": [91.4836830052524, 38.82126179154216]}}, {"type": "Feature", "properties": {"norad_id": 15362, "name": "NOVA 3", "group": "nnss", "lat": -89.71753302569891, "lon": 106.22354776073745, "alt_km": 1168.253005961661, "timestamp": "2025-12-14T03:55:53.056097+00:00", "meta": {"OBJECT_NAME": "NOVA 3", "OBJECT_ID": "1984-110A", "EPOCH": "2025-12-13T06:52:25.016160", "MEAN_MOTION": 13.23044636, "ECCENTRICITY": 0.00304552, "INCLINATION": 90.1223, "RA_OF_ASC_NODE": 80.5412, "ARG_OF_PERICENTER": 330.3572, "MEAN_ANOMALY": 83.5527, "EPHEMERIS_TYPE": 0, "CLASSIFICATION_TYPE": "U", "NORAD_CAT_ID": 15362, "ELEMENT_SET_NO": 999, "REV_AT_EPOCH": 98706, "BSTAR": 0.00017968502, "MEAN_MOTION_DOT": 8.4e-07, "MEAN_MOTION_DDOT": 0}, "tle": {"line1": "1 15362U 84110A   25347.28640065  .00000084  00000+0  17969-3 0  9999", "line2": "2 15362  90.1223  80.5412 0030455 330.3572  83.5527 13.23044636987068"}}, "geometry": {"type": "Point", "coordinates": [106.22354776073745, -89.71753302569891]}}, {"type": "Feature", "properties": {"norad_id": 15935, "name": "OSCAR 30", "group": "nnss", "lat": 57.254809736601956, "lon": 99.61322122637735, "alt_km": 1000.8243837262207, "timestamp": "2025-12-14T03:55:53.056108+00:00", "meta": {"OBJECT_NAME": "OSCAR 30", "OBJECT_ID": "1985-066A", "EPOCH": "2025-12-13T07:55:50.875680", "MEAN_MOTION": 13.36078448, "ECCENTRICITY": 0.01693998, "INCLINATION": 90.1652, "RA_OF_ASC_NODE": 99.8567, "ARG_OF_PERICENTER": 82.2597, "MEAN_ANOMALY": 289.7854, "EPHEMERIS_TYPE": 0, "CLASSIFICATION_TYPE": "U", "NORAD_CAT_ID": 15935, "ELEMENT_SET_NO": 999, "REV_AT_EPOCH": 96461, "BSTAR": 0.00019459302, "MEAN_MOTION_DOT": 1.18e-06, "MEAN_MOTION_DDOT": 0}, "tle": {"line1": "1 15935U 85066A   25347.33044995  .00000118  00000+0  19459-3 0  9996", "line2": "2 15935  90.1652  99.8567 0169399  82.2597 289.7854 13.36078448964615"}}, "geometry": {"type": "Point", "coordinates": [99.61322122637735, 57.254809736601956]}}, {"type": "Feature", "properties": {"norad_id": 15936, "name": "OSCAR 24", "group": "nnss", "lat": 45.83100742983259, "lon": -87.48505323071952, "alt_km": 1033.3355004199293, "timestamp": "2025-12-14T03:55:53.056118+00:00", "meta": {"OBJECT_NAME": "OSCAR 24", "OBJECT_ID": "1985-066B", "EPOCH": "2025-12-13T07:32:25.939104", "MEAN_MOTION": 13.35935903, "ECCENTRICITY": 0.01704623, "INCLINATION": 90.179, "RA_OF_ASC_NODE": 92.3156, "ARG_OF_PERICENTER": 88.7358, "MEAN_ANOMALY": 280.1889, "EPHEMERIS_TYPE": 0, "CLASSIFICATION_TYPE": "U", "NORAD_CAT_ID": 15936, "ELEMENT_SET_NO": 999, "REV_AT_EPOCH": 96651, "BSTAR": 0.00017727285, "MEAN_MOTION_DOT": 1.09e-06, "MEAN_MOTION_DDOT": 0}, "tle": {"line1": "1 15936U 85066B   25347.31418911  .00000109  00000+0  17727-3 0  9994", "line2": "2 15936  90.1790  92.3156 0170462  88.7358 280.1889 13.35935903966511"}}, "geometry": {"type": "Point", "coordinates": [-87.48505323071952, 45.83100742983259]}}]}